LEMUR-2-GREENBERG       
1 42837U 17042N   26068.46200528  .00019778  00000+0  72539-3 0  9997
2 42837  97.3781 249.8007 0009157   4.0119 356.1192 15.27971352473146
STARLINK-31593          
1 59350U 24060C   26068.53484944 -.00001013  00000+0 -27294-4 0  9991
2 59350  43.0021 260.3484 0001082 292.7870  67.2868 15.27569226110045
